start=new Date('2022-12-19T00:00:00.000Z').valueOf();
sats=[{"REF_FRAME":"TEME","TLE_LINE1":"1 46354U 20062AF  22352.47214375 -.00000396  00000-0 -76749-5 0  9997","INCLINATION":"53.0560","MEAN_MOTION":"15.06404198","APOAPSIS":"548.375","REV_AT_EPOCH":"12705","LAUNCH_DATE":"2020-09-03","ECCENTRICITY":"0.00016950","NORAD_CAT_ID":"46354","MEAN_ELEMENT_THEORY":"SGP4","SITE":"AFETR","MEAN_MOTION_DOT":"-0.00000396","FILE":"3709010","RCS_SIZE":"LARGE","SEMIMAJOR_AXIS":"6925.336","EPHEMERIS_TYPE":"0","BSTAR":"-0.00000767490000","EPOCH":"2022-12-18T11:19:53.220000","OBJECT_TYPE":"PAYLOAD","MEAN_ANOMALY":"300.8780","PERIOD":"95.592","RA_OF_ASC_NODE":"261.3577","CENTER_NAME":"EARTH","ELEMENT_SET_NO":"999","PERIAPSIS":"546.027","TLE_LINE2":"2 46354  53.0560 261.3577 0001695  59.2376 300.8780 15.06404198127056","COUNTRY_CODE":"US","ARG_OF_PERICENTER":"59.2376","MEAN_MOTION_DDOT":"0.0000000000000","CLASSIFICATION_TYPE":"U","OBJECT_ID":"2020-062AF","TIME_SYSTEM":"UTC","OBJECT_NAME":"STARLINK-1657","GP_ID":"220831950","DECAY_DATE":null},{"TLE_LINE1":"1 46355U 20062AG  22352.18096225 -.00000943  00000-0 -44402-4 0  9996","REF_FRAME":"TEME","APOAPSIS":"548.360","MEAN_MOTION":"15.06386188","INCLINATION":"53.0556","REV_AT_EPOCH":"12683","MEAN_ELEMENT_THEORY":"SGP4","NORAD_CAT_ID":"46355","ECCENTRICITY":"0.00015950","LAUNCH_DATE":"2020-09-03","FILE":"3708942","RCS_SIZE":"LARGE","SEMIMAJOR_AXIS":"6925.391","MEAN_MOTION_DOT":"-0.00000943","SITE":"AFETR","EPHEMERIS_TYPE":"0","BSTAR":"-0.00004440200000","MEAN_ANOMALY":"278.2976","EPOCH":"2022-12-18T04:20:35.138400","OBJECT_TYPE":"PAYLOAD","PERIOD":"95.593","RA_OF_ASC_NODE":"262.6712","COUNTRY_CODE":"US","TLE_LINE2":"2 46355  53.0556 262.6712 0001595  81.8194 278.2976 15.06386188126833","ELEMENT_SET_NO":"999","PERIAPSIS":"546.151","CENTER_NAME":"EARTH","MEAN_MOTION_DDOT":"0.0000000000000","CLASSIFICATION_TYPE":"U","ARG_OF_PERICENTER":"81.8194","TIME_SYSTEM":"UTC","OBJECT_ID":"2020-062AG","GP_ID":"220824674","OBJECT_NAME":"STARLINK-1661","DECAY_DATE":null},{"TLE_LINE1":"1 46356U 20062AH  22352.78819667 -.00002657  00000-0 -15952-3 0  9997","REF_FRAME":"TEME","APOAPSIS":"548.354","MEAN_MOTION":"15.06400710","INCLINATION":"53.0558","REV_AT_EPOCH":"12692","MEAN_ELEMENT_THEORY":"SGP4","NORAD_CAT_ID":"46356","LAUNCH_DATE":"2020-09-03","ECCENTRICITY":"0.00016500","SEMIMAJOR_AXIS":"6925.346","FILE":"3709623","RCS_SIZE":"LARGE","MEAN_MOTION_DOT":"-0.00002657","SITE":"AFETR","EPHEMERIS_TYPE":"0","BSTAR":"-0.00015952000000","MEAN_ANOMALY":"261.8154","EPOCH":"2022-12-18T18:55:00.192288","OBJECT_TYPE":"PAYLOAD","PERIOD":"95.592","RA_OF_ASC_NODE":"259.9376","COUNTRY_CODE":"US","TLE_LINE2":"2 46356  53.0558 259.9376 0001650  98.3022 261.8154 15.06400710126920","PERIAPSIS":"546.069","ELEMENT_SET_NO":"999","CENTER_NAME":"EARTH","MEAN_MOTION_DDOT":"0.0000000000000","CLASSIFICATION_TYPE":"U","ARG_OF_PERICENTER":"98.3022","TIME_SYSTEM":"UTC","OBJECT_ID":"2020-062AH","GP_ID":"220865980","OBJECT_NAME":"STARLINK-1665","DECAY_DATE":null},{"TLE_LINE2":"2 46357  53.0518 240.2366 0001491 103.2208 256.8948 15.06395276127199","COUNTRY_CODE":"US","CENTER_NAME":"EARTH","PERIAPSIS":"546.195","ELEMENT_SET_NO":"999","RA_OF_ASC_NODE":"240.2366","TIME_SYSTEM":"UTC","OBJECT_ID":"2020-062AJ","MEAN_MOTION_DDOT":"0.0000000000000","CLASSIFICATION_TYPE":"U","ARG_OF_PERICENTER":"103.2208","DECAY_DATE":null,"OBJECT_NAME":"STARLINK-1666","GP_ID":"220865731","MEAN_MOTION":"15.06395276","APOAPSIS":"548.261","INCLINATION":"53.0518","TLE_LINE1":"1 46357U 20062AJ  22352.72096931  .00002737  00000-0  20262-3 0  9990","REF_FRAME":"TEME","MEAN_ELEMENT_THEORY":"SGP4","ECCENTRICITY":"0.00014910","LAUNCH_DATE":"2020-09-03","NORAD_CAT_ID":"46357","REV_AT_EPOCH":"12719","EPHEMERIS_TYPE":"0","BSTAR":"0.00020262000000","MEAN_MOTION_DOT":"0.00002737","FILE":"3709623","SEMIMAJOR_AXIS":"6925.363","RCS_SIZE":"LARGE","SITE":"AFETR","PERIOD":"95.592","MEAN_ANOMALY":"256.8948","EPOCH":"2022-12-18T17:18:11.748384","OBJECT_TYPE":"PAYLOAD"},{"RA_OF_ASC_NODE":"262.7202","COUNTRY_CODE":"US","TLE_LINE2":"2 46358  53.0554 262.7202 0001694  70.3016 289.8155 15.06400101126834","ELEMENT_SET_NO":"999","PERIAPSIS":"546.040","CENTER_NAME":"EARTH","MEAN_MOTION_DDOT":"0.0000000000000","CLASSIFICATION_TYPE":"U","ARG_OF_PERICENTER":"70.3016","TIME_SYSTEM":"UTC","OBJECT_ID":"2020-062AK","GP_ID":"220824425","OBJECT_NAME":"STARLINK-1690","DECAY_DATE":null,"TLE_LINE1":"1 46358U 20062AK  22352.16990388  .00000367  00000-0  43536-4 0  9995","REF_FRAME":"TEME","APOAPSIS":"548.386","MEAN_MOTION":"15.06400101","INCLINATION":"53.0554","REV_AT_EPOCH":"12683","MEAN_ELEMENT_THEORY":"SGP4","NORAD_CAT_ID":"46358","LAUNCH_DATE":"2020-09-03","ECCENTRICITY":"0.00016940","FILE":"3708942","SEMIMAJOR_AXIS":"6925.348","RCS_SIZE":"LARGE","MEAN_MOTION_DOT":"0.00000367","SITE":"AFETR","BSTAR":"0.00004353600000","EPHEMERIS_TYPE":"0","MEAN_ANOMALY":"289.8155","EPOCH":"2022-12-18T04:04:39.695232","OBJECT_TYPE":"PAYLOAD","PERIOD":"95.592"},{"OBJECT_NAME":"STARLINK-1707","GP_ID":"220866729","DECAY_DATE":null,"MEAN_MOTION_DDOT":"0.0000000000000","CLASSIFICATION_TYPE":"U","ARG_OF_PERICENTER":"66.9533","TIME_SYSTEM":"UTC","OBJECT_ID":"2020-062AL","RA_OF_ASC_NODE":"214.5306","TLE_LINE2":"2 46359  53.0532 214.5306 0001559  66.9533 293.1620 15.06397261127564","COUNTRY_CODE":"US","CENTER_NAME":"EARTH","ELEMENT_SET_NO":"999","PERIAPSIS":"546.142","MEAN_ANOMALY":"293.1620","OBJECT_TYPE":"PAYLOAD","EPOCH":"2022-12-18T21:07:03.866304","PERIOD":"95.592","MEAN_MOTION_DOT":"0.00002946","FILE":"3709623","SEMIMAJOR_AXIS":"6925.357","RCS_SIZE":"LARGE","SITE":"AFETR","BSTAR":"0.00021659000000","EPHEMERIS_TYPE":"0","REV_AT_EPOCH":"12756","MEAN_ELEMENT_THEORY":"SGP4","LAUNCH_DATE":"2020-09-03","ECCENTRICITY":"0.00015590","NORAD_CAT_ID":"46359","TLE_LINE1":"1 46359U 20062AL  22352.87990586  .00002946  00000-0  21659-3 0  9990","REF_FRAME":"TEME","MEAN_MOTION":"15.06397261","APOAPSIS":"548.302","INCLINATION":"53.0532"},{"MEAN_ELEMENT_THEORY":"SGP4","ECCENTRICITY":"0.00019060","LAUNCH_DATE":"2020-09-03","NORAD_CAT_ID":"46360","REV_AT_EPOCH":"12757","MEAN_MOTION":"15.06389289","APOAPSIS":"548.566","INCLINATION":"53.0525","TLE_LINE1":"1 46360U 20062AM  22352.90202589 -.00000814  00000-0 -35758-4 0  9995","REF_FRAME":"TEME","PERIOD":"95.593","MEAN_ANOMALY":"306.4291","OBJECT_TYPE":"PAYLOAD","EPOCH":"2022-12-18T21:38:55.036896","BSTAR":"-0.00003575800000","EPHEMERIS_TYPE":"0","MEAN_MOTION_DOT":"-0.00000814","FILE":"3709623","RCS_SIZE":"LARGE","SEMIMAJOR_AXIS":"6925.381","SITE":"AFETR","TIME_SYSTEM":"UTC","OBJECT_ID":"2020-062AM","MEAN_MOTION_DDOT":"0.0000000000000","CLASSIFICATION_TYPE":"U","ARG_OF_PERICENTER":"53.6874","TLE_LINE2":"2 46360  53.0525 214.4305 0001906  53.6874 306.4291 15.06389289127577","COUNTRY_CODE":"US","CENTER_NAME":"EARTH","PERIAPSIS":"545.926","ELEMENT_SET_NO":"999","RA_OF_ASC_NODE":"214.4305","DECAY_DATE":null,"GP_ID":"220865481","OBJECT_NAME":"STARLINK-1713"},{"MEAN_ELEMENT_THEORY":"SGP4","LAUNCH_DATE":"2020-09-03","ECCENTRICITY":"0.00015230","NORAD_CAT_ID":"46361","REV_AT_EPOCH":"12755","MEAN_MOTION":"15.06403560","APOAPSIS":"548.257","INCLINATION":"53.0542","TLE_LINE1":"1 46361U 20062AN  22352.80523074  .00002242  00000-0  16932-3 0  9997","REF_FRAME":"TEME","PERIOD":"95.592","MEAN_ANOMALY":"278.9272","OBJECT_TYPE":"PAYLOAD","EPOCH":"2022-12-18T19:19:31.935936","BSTAR":"0.00016932000000","EPHEMERIS_TYPE":"0","MEAN_MOTION_DOT":"0.00002242","RCS_SIZE":"LARGE","FILE":"3709623","SEMIMAJOR_AXIS":"6925.338","SITE":"AFETR","TIME_SYSTEM":"UTC","OBJECT_ID":"2020-062AN","CLASSIFICATION_TYPE":"U","MEAN_MOTION_DDOT":"0.0000000000000","ARG_OF_PERICENTER":"81.1890","TLE_LINE2":"2 46361  53.0542 214.8426 0001523  81.1890 278.9272 15.06403560127553","COUNTRY_CODE":"US","CENTER_NAME":"EARTH","ELEMENT_SET_NO":"999","PERIAPSIS":"546.148","RA_OF_ASC_NODE":"214.8426","DECAY_DATE":null,"GP_ID":"220866231","OBJECT_NAME":"STARLINK-1722"},{"PERIOD":"95.593","EPOCH":"2022-12-18T18:49:03.859680","OBJECT_TYPE":"PAYLOAD","MEAN_ANOMALY":"298.1716","EPHEMERIS_TYPE":"0","BSTAR":"0.00008200700000","SITE":"AFETR","FILE":"3709623","RCS_SIZE":"LARGE","SEMIMAJOR_AXIS":"6925.379","MEAN_MOTION_DOT":"0.00000940","NORAD_CAT_ID":"46362","LAUNCH_DATE":"2020-09-03","ECCENTRICITY":"0.00015190","MEAN_ELEMENT_THEORY":"SGP4","REV_AT_EPOCH":"12755","INCLINATION":"53.0538","APOAPSIS":"548.296","MEAN_MOTION":"15.06390067","REF_FRAME":"TEME","TLE_LINE1":"1 46362U 20062AP  22352.78407245  .00000940  00000-0  82007-4 0  9996","DECAY_DATE":null,"GP_ID":"220866482","OBJECT_NAME":"STARLINK-1726","OBJECT_ID":"2020-062AP","TIME_SYSTEM":"UTC","ARG_OF_PERICENTER":"61.9426","MEAN_MOTION_DDOT":"0.0000000000000","CLASSIFICATION_TYPE":"U","PERIAPSIS":"546.192","ELEMENT_SET_NO":"999","CENTER_NAME":"EARTH","COUNTRY_CODE":"US","TLE_LINE2":"2 46362  53.0538 214.9645 0001519  61.9426 298.1716 15.06390067127553","RA_OF_ASC_NODE":"214.9645"},{"REV_AT_EPOCH":"12756","ECCENTRICITY":"0.00016440","LAUNCH_DATE":"2020-09-03","NORAD_CAT_ID":"46363","MEAN_ELEMENT_THEORY":"SGP4","REF_FRAME":"TEME","TLE_LINE1":"1 46363U 20062AQ  22352.84210161 -.00002230  00000-0 -13091-3 0  9995","INCLINATION":"53.0548","MEAN_MOTION":"15.06385777","APOAPSIS":"548.396","EPOCH":"2022-12-18T20:12:37.579104","OBJECT_TYPE":"PAYLOAD","MEAN_ANOMALY":"280.9075","PERIOD":"95.593","SITE":"AFETR","MEAN_MOTION_DOT":"-0.00002230","FILE":"3709623","RCS_SIZE":"LARGE","SEMIMAJOR_AXIS":"6925.392","EPHEMERIS_TYPE":"0","BSTAR":"-0.00013091000000","ARG_OF_PERICENTER":"79.2099","MEAN_MOTION_DDOT":"0.0000000000000","CLASSIFICATION_TYPE":"U","OBJECT_ID":"2020-062AQ","TIME_SYSTEM":"UTC","RA_OF_ASC_NODE":"214.6728","CENTER_NAME":"EARTH","ELEMENT_SET_NO":"999","PERIAPSIS":"546.119","TLE_LINE2":"2 46363  53.0548 214.6728 0001644  79.2099 280.9075 15.06385777127561","COUNTRY_CODE":"US","GP_ID":"220867228","OBJECT_NAME":"STARLINK-1739","DECAY_DATE":null}];
